CCSDS_OMM_VERS = 2.0
CREATION_DATE  = 
ORIGINATOR     = 

OBJECT_NAME    = COSMOS 2151
OBJECT_ID      = 1991-042A
CENTER_NAME    = EARTH
REF_FRAME      = TEME
TIME_SYSTEM    = UTC
MEAN_ELEMENT_THEORY = SGP/SGP4

EPOCH          = 2025-11-30T19:30:51.825312
MEAN_MOTION    = 14.99618041
ECCENTRICITY   = .0013523
INCLINATION    = 82.4967
RA_OF_ASC_NODE = 178.9957
ARG_OF_PERICENTER = 38.6702
MEAN_ANOMALY   = 321.5487

EPHEMERIS_TYPE = 0
CLASSIFICATION_TYPE = U
NORAD_CAT_ID   = 21422
ELEMENT_SET_NO = 999
REV_AT_EPOCH   = 84837
BSTAR          = .1197E-3
MEAN_MOTION_DOT = .1503E-4
MEAN_MOTION_DDOT = 0

CCSDS_OMM_VERS = 2.0
CREATION_DATE  = 
ORIGINATOR     = 

OBJECT_NAME    = SL-14 R/B
OBJECT_ID      = 1991-042B
CENTER_NAME    = EARTH
REF_FRAME      = TEME
TIME_SYSTEM    = UTC
MEAN_ELEMENT_THEORY = SGP/SGP4

EPOCH          = 2025-11-30T16:39:26.898048
MEAN_MOTION    = 14.81720551
ECCENTRICITY   = .0016386
INCLINATION    = 82.4917
RA_OF_ASC_NODE = 313.0200
ARG_OF_PERICENTER = 201.5217
MEAN_ANOMALY   = 158.5310

EPHEMERIS_TYPE = 0
CLASSIFICATION_TYPE = U
NORAD_CAT_ID   = 21423
ELEMENT_SET_NO = 999
REV_AT_EPOCH   = 83841
BSTAR          = .60451E-4
MEAN_MOTION_DOT = .5E-5
MEAN_MOTION_DDOT = 0

CCSDS_OMM_VERS = 2.0
CREATION_DATE  = 
ORIGINATOR     = 

OBJECT_NAME    = ERS-1
OBJECT_ID      = 1991-050A
CENTER_NAME    = EARTH
REF_FRAME      = TEME
TIME_SYSTEM    = UTC
MEAN_ELEMENT_THEORY = SGP/SGP4

EPOCH          = 2025-11-30T15:23:23.712288
MEAN_MOTION    = 14.39349539
ECCENTRICITY   = .0032754
INCLINATION    = 98.7913
RA_OF_ASC_NODE = 345.3933
ARG_OF_PERICENTER = 134.9038
MEAN_ANOMALY   = 225.4816

EPHEMERIS_TYPE = 0
CLASSIFICATION_TYPE = U
NORAD_CAT_ID   = 21574
ELEMENT_SET_NO = 999
REV_AT_EPOCH   = 80148
BSTAR          = .12582E-3
MEAN_MOTION_DOT = .347E-5
MEAN_MOTION_DDOT = 0

CCSDS_OMM_VERS = 2.0
CREATION_DATE  = 
ORIGINATOR     = 

OBJECT_NAME    = ARIANE 40 R/B
OBJECT_ID      = 1991-050F
CENTER_NAME    = EARTH
REF_FRAME      = TEME
TIME_SYSTEM    = UTC
MEAN_ELEMENT_THEORY = SGP/SGP4

EPOCH          = 2025-11-30T17:16:14.354112
MEAN_MOTION    = 14.42796766
ECCENTRICITY   = .0003517
INCLINATION    = 98.2183
RA_OF_ASC_NODE = 25.5831
ARG_OF_PERICENTER = 33.9986
MEAN_ANOMALY   = 326.1429

EPHEMERIS_TYPE = 0
CLASSIFICATION_TYPE = U
NORAD_CAT_ID   = 21610
ELEMENT_SET_NO = 999
REV_AT_EPOCH   = 80472
BSTAR          = .12402E-3
MEAN_MOTION_DOT = .372E-5
MEAN_MOTION_DDOT = 0

CCSDS_OMM_VERS = 2.0
CREATION_DATE  = 
ORIGINATOR     = 

OBJECT_NAME    = INTERCOSMOS 25
OBJECT_ID      = 1991-086A
CENTER_NAME    = EARTH
REF_FRAME      = TEME
TIME_SYSTEM    = UTC
MEAN_ELEMENT_THEORY = SGP/SGP4

EPOCH          = 2025-11-30T19:53:58.104672
MEAN_MOTION    = 12.11659360
ECCENTRICITY   = .1487224
INCLINATION    = 82.6067
RA_OF_ASC_NODE = 9.7787
ARG_OF_PERICENTER = 330.0894
MEAN_ANOMALY   = 22.2648

EPHEMERIS_TYPE = 0
CLASSIFICATION_TYPE = U
NORAD_CAT_ID   = 21819
ELEMENT_SET_NO = 999
REV_AT_EPOCH   = 48471
BSTAR          = .44979E-3
MEAN_MOTION_DOT = .2272E-4
MEAN_MOTION_DDOT = 0

CCSDS_OMM_VERS = 2.0
CREATION_DATE  = 
ORIGINATOR     = 

OBJECT_NAME    = SL-8 R/B
OBJECT_ID      = 1992-008B
CENTER_NAME    = EARTH
REF_FRAME      = TEME
TIME_SYSTEM    = UTC
MEAN_ELEMENT_THEORY = SGP/SGP4

EPOCH          = 2025-11-30T18:37:45.229152
MEAN_MOTION    = 13.75954943
ECCENTRICITY   = .0035802
INCLINATION    = 82.9264
RA_OF_ASC_NODE = 341.3462
ARG_OF_PERICENTER = 52.5063
MEAN_ANOMALY   = 120.4216

EPHEMERIS_TYPE = 0
CLASSIFICATION_TYPE = U
NORAD_CAT_ID   = 21876
ELEMENT_SET_NO = 999
REV_AT_EPOCH   = 69581
BSTAR          = .14773E-3
MEAN_MOTION_DOT = .159E-5
MEAN_MOTION_DDOT = 0

CCSDS_OMM_VERS = 2.0
CREATION_DATE  = 
ORIGINATOR     = 

OBJECT_NAME    = SL-8 R/B
OBJECT_ID      = 1992-020B
CENTER_NAME    = EARTH
REF_FRAME      = TEME
TIME_SYSTEM    = UTC
MEAN_ELEMENT_THEORY = SGP/SGP4

EPOCH          = 2025-11-30T18:22:39.800352
MEAN_MOTION    = 13.75524444
ECCENTRICITY   = .002816
INCLINATION    = 82.9314
RA_OF_ASC_NODE = 227.2081
ARG_OF_PERICENTER = 212.0703
MEAN_ANOMALY   = 207.4202

EPHEMERIS_TYPE = 0
CLASSIFICATION_TYPE = U
NORAD_CAT_ID   = 21938
ELEMENT_SET_NO = 999
REV_AT_EPOCH   = 68753
BSTAR          = .45564E-4
MEAN_MOTION_DOT = .59E-6
MEAN_MOTION_DDOT = 0

CCSDS_OMM_VERS = 2.0
CREATION_DATE  = 
ORIGINATOR     = 

OBJECT_NAME    = USA 81
OBJECT_ID      = 1992-023A
CENTER_NAME    = EARTH
REF_FRAME      = TEME
TIME_SYSTEM    = UTC
MEAN_ELEMENT_THEORY = SGP/SGP4

EPOCH          = 2025-11-30T16:03:07.253280
MEAN_MOTION    = 14.32319971
ECCENTRICITY   = .0001959
INCLINATION    = 85.0089
RA_OF_ASC_NODE = 188.5372
ARG_OF_PERICENTER = 63.7584
MEAN_ANOMALY   = 296.3810

EPHEMERIS_TYPE = 0
CLASSIFICATION_TYPE = U
NORAD_CAT_ID   = 21949
ELEMENT_SET_NO = 999
REV_AT_EPOCH   = 8061
BSTAR          = .6552E-4
MEAN_MOTION_DOT = .197E-5
MEAN_MOTION_DDOT = 0

CCSDS_OMM_VERS = 2.0
CREATION_DATE  = 
ORIGINATOR     = 

OBJECT_NAME    = COSMOS 2219
OBJECT_ID      = 1992-076A
CENTER_NAME    = EARTH
REF_FRAME      = TEME
TIME_SYSTEM    = UTC
MEAN_ELEMENT_THEORY = SGP/SGP4

EPOCH          = 2025-11-30T18:28:19.311744
MEAN_MOTION    = 14.14064726
ECCENTRICITY   = .0018764
INCLINATION    = 71.0596
RA_OF_ASC_NODE = 224.8541
ARG_OF_PERICENTER = 343.4431
MEAN_ANOMALY   = 16.6076

EPHEMERIS_TYPE = 0
CLASSIFICATION_TYPE = U
NORAD_CAT_ID   = 22219
ELEMENT_SET_NO = 999
REV_AT_EPOCH   = 70439
BSTAR          = -.11528E-3
MEAN_MOTION_DOT = -.267E-5
MEAN_MOTION_DDOT = 0

CCSDS_OMM_VERS = 2.0
CREATION_DATE  = 
ORIGINATOR     = 

OBJECT_NAME    = SL-16 R/B
OBJECT_ID      = 1992-076B
CENTER_NAME    = EARTH
REF_FRAME      = TEME
TIME_SYSTEM    = UTC
MEAN_ELEMENT_THEORY = SGP/SGP4

EPOCH          = 2025-11-30T15:43:52.218336
MEAN_MOTION    = 14.16840224
ECCENTRICITY   = .0015075
INCLINATION    = 71.0017
RA_OF_ASC_NODE = 36.9872
ARG_OF_PERICENTER = 250.0250
MEAN_ANOMALY   = 227.1512

EPHEMERIS_TYPE = 0
CLASSIFICATION_TYPE = U
NORAD_CAT_ID   = 22220
ELEMENT_SET_NO = 999
REV_AT_EPOCH   = 70780
BSTAR          = .10941E-3
MEAN_MOTION_DOT = .172E-5
MEAN_MOTION_DDOT = 0

CCSDS_OMM_VERS = 2.0
CREATION_DATE  = 
ORIGINATOR     = 

OBJECT_NAME    = COSMOS 2221
OBJECT_ID      = 1992-080A
CENTER_NAME    = EARTH
REF_FRAME      = TEME
TIME_SYSTEM    = UTC
MEAN_ELEMENT_THEORY = SGP/SGP4

EPOCH          = 2025-11-30T13:48:28.118016
MEAN_MOTION    = 14.95687387
ECCENTRICITY   = .0015167
INCLINATION    = 82.5056
RA_OF_ASC_NODE = 13.9683
ARG_OF_PERICENTER = 159.9912
MEAN_ANOMALY   = 200.1907

EPHEMERIS_TYPE = 0
CLASSIFICATION_TYPE = U
NORAD_CAT_ID   = 22236
ELEMENT_SET_NO = 999
REV_AT_EPOCH   = 76597
BSTAR          = .18063E-3
MEAN_MOTION_DOT = .2039E-4
MEAN_MOTION_DDOT = 0

CCSDS_OMM_VERS = 2.0
CREATION_DATE  = 
ORIGINATOR     = 

OBJECT_NAME    = SL-16 R/B
OBJECT_ID      = 1992-093B
CENTER_NAME    = EARTH
REF_FRAME      = TEME
TIME_SYSTEM    = UTC
MEAN_ELEMENT_THEORY = SGP/SGP4

EPOCH          = 2025-11-30T19:12:56.593728
MEAN_MOTION    = 14.15425989
ECCENTRICITY   = .0001943
INCLINATION    = 71.0203
RA_OF_ASC_NODE = 211.8575
ARG_OF_PERICENTER = 108.5815
MEAN_ANOMALY   = 251.5519

EPHEMERIS_TYPE = 0
CLASSIFICATION_TYPE = U
NORAD_CAT_ID   = 22285
ELEMENT_SET_NO = 999
REV_AT_EPOCH   = 69916
BSTAR          = -.90875E-4
MEAN_MOTION_DOT = -.225E-5
MEAN_MOTION_DDOT = 0

