COSMOS 2151             
1 21422U 91042A   25334.81309983  .00001503  00000+0  11970-3 0  9994
2 21422  82.4967 178.9957 0013523  38.6702 321.5487 14.99618041848378
SL-14 R/B               
1 21423U 91042B   25334.69406132  .00000500  00000+0  60451-4 0  9990
2 21423  82.4917 313.0200 0016386 201.5217 158.5310 14.81720551838417
ERS-1                   
1 21574U 91050A   25334.64124667  .00000347  00000+0  12582-3 0  9991
2 21574  98.7913 345.3933 0032754 134.9038 225.4816 14.39349539801486
ARIANE 40 R/B           
1 21610U 91050F   25334.71961058  .00000372  00000+0  12402-3 0  9992
2 21610  98.2183  25.5831 0003517  33.9986 326.1429 14.42796766804721
INTERCOSMOS 25          
1 21819U 91086A   25334.82914473  .00002272  00000+0  44979-3 0  9998
2 21819  82.6067   9.7787 1487224 330.0894  22.2648 12.11659360484717
SL-8 R/B                
1 21876U 92008B   25334.77621793  .00000159  00000+0  14773-3 0  9991
2 21876  82.9264 341.3462 0035802  52.5063 120.4216 13.75954943695814
SL-8 R/B                
1 21938U 92020B   25334.76573843  .00000059  00000+0  45564-4 0  9997
2 21938  82.9314 227.2081 0028160 212.0703 207.4202 13.75524444687531
USA 81                  
1 21949U 92023A   25334.66883395  .00000197  00000+0  65520-4 0  9994
2 21949  85.0089 188.5372 0001959  63.7584 296.3810 14.32319971 80612
COSMOS 2219             
1 22219U 92076A   25334.76966796 -.00000267  00000+0 -11528-3 0  9999
2 22219  71.0596 224.8541 0018764 343.4431  16.6076 14.14064726704394
SL-16 R/B               
1 22220U 92076B   25334.65546549  .00000172  00000+0  10941-3 0  9990
2 22220  71.0017  36.9872 0015075 250.0250 227.1512 14.16840224707807
COSMOS 2221             
1 22236U 92080A   25334.57532544  .00002039  00000+0  18063-3 0  9990
2 22236  82.5056  13.9683 0015167 159.9912 200.1907 14.95687387765970
SL-16 R/B               
1 22285U 92093B   25334.80065502 -.00000225  00000+0 -90875-4 0  9998
2 22285  71.0203 211.8575 0001943 108.5815 251.5519 14.15425989699165
